[{"OBJECT_NAME":"ONEWEB-0101","OBJECT_ID":"2021-025H","EPOCH":"2025-08-23T03:16:59.848320","MEAN_MOTION":13.13468935,"ECCENTRICITY":0.00016305,"INCLINATION":87.8996,"RA_OF_ASC_NODE":19.4437,"ARG_OF_PERICENTER":96.4476,"MEAN_ANOMALY":263.6839,"EPHEMERIS_TYPE":0,"CLASSIFICATION_TYPE":"U","NORAD_CAT_ID":48049,"ELEMENT_SET_NO":999,"REV_AT_EPOCH":21437,"BSTAR":-0.00062227201,"MEAN_MOTION_DOT":-2.14e-6,"MEAN_MOTION_DDOT":0},{"OBJECT_NAME":"ONEWEB-0113","OBJECT_ID":"2021-025J","EPOCH":"2025-08-23T02:53:11.824800","MEAN_MOTION":13.13976604,"ECCENTRICITY":0.00019287,"INCLINATION":87.8999,"RA_OF_ASC_NODE":19.3912,"ARG_OF_PERICENTER":94.0181,"MEAN_ANOMALY":266.1169,"EPHEMERIS_TYPE":0,"CLASSIFICATION_TYPE":"U","NORAD_CAT_ID":48050,"ELEMENT_SET_NO":999,"REV_AT_EPOCH":21446,"BSTAR":-0.00077737494,"MEAN_MOTION_DOT":-2.73e-6,"MEAN_MOTION_DDOT":0},{"OBJECT_NAME":"ONEWEB-0112","OBJECT_ID":"2021-025K","EPOCH":"2025-08-23T02:28:15.402720","MEAN_MOTION":13.13467179,"ECCENTRICITY":0.00017897,"INCLINATION":87.9005,"RA_OF_ASC_NODE":19.4076,"ARG_OF_PERICENTER":100.0476,"MEAN_ANOMALY":260.0855,"EPHEMERIS_TYPE":0,"CLASSIFICATION_TYPE":"U","NORAD_CAT_ID":48051,"ELEMENT_SET_NO":999,"REV_AT_EPOCH":21446,"BSTAR":0.0013706762,"MEAN_MOTION_DOT":5.13e-6,"MEAN_MOTION_DDOT":0},{"OBJECT_NAME":"ONEWEB-0156","OBJECT_ID":"2021-025L","EPOCH":"2025-08-23T02:40:24.988512","MEAN_MOTION":13.13470519,"ECCENTRICITY":0.00017275,"INCLINATION":87.9002,"RA_OF_ASC_NODE":19.418,"ARG_OF_PERICENTER":100.9483,"MEAN_ANOMALY":259.184,"EPHEMERIS_TYPE":0,"CLASSIFICATION_TYPE":"U","NORAD_CAT_ID":48052,"ELEMENT_SET_NO":999,"REV_AT_EPOCH":21444,"BSTAR":-0.00046653917,"MEAN_MOTION_DOT":-1.58e-6,"MEAN_MOTION_DDOT":0},{"OBJECT_NAME":"ONEWEB-0161","OBJECT_ID":"2021-025M","EPOCH":"2025-08-23T03:53:33.421632","MEAN_MOTION":13.13467915,"ECCENTRICITY":0.00016939,"INCLINATION":87.9003,"RA_OF_ASC_NODE":19.4269,"ARG_OF_PERICENTER":101.8361,"MEAN_ANOMALY":258.2959,"EPHEMERIS_TYPE":0,"CLASSIFICATION_TYPE":"U","NORAD_CAT_ID":48053,"ELEMENT_SET_NO":999,"REV_AT_EPOCH":21438,"BSTAR":0.00079750303,"MEAN_MOTION_DOT":3.04e-6,"MEAN_MOTION_DDOT":0},{"OBJECT_NAME":"ONEWEB-0158","OBJECT_ID":"2021-025N","EPOCH":"2025-08-23T02:55:03.725760","MEAN_MOTION":13.13469208,"ECCENTRICITY":0.00019105,"INCLINATION":87.9004,"RA_OF_ASC_NODE":19.4142,"ARG_OF_PERICENTER":93.8263,"MEAN_ANOMALY":266.3085,"EPHEMERIS_TYPE":0,"CLASSIFICATION_TYPE":"U","NORAD_CAT_ID":48054,"ELEMENT_SET_NO":999,"REV_AT_EPOCH":21450,"BSTAR":-0.00082780033,"MEAN_MOTION_DOT":-2.9e-6,"MEAN_MOTION_DDOT":0},{"OBJECT_NAME":"ONEWEB-0157","OBJECT_ID":"2021-025P","EPOCH":"2025-08-23T03:31:36.858432","MEAN_MOTION":13.13470187,"ECCENTRICITY":0.00015191,"INCLINATION":87.8999,"RA_OF_ASC_NODE":19.4183,"ARG_OF_PERICENTER":109.6804,"MEAN_ANOMALY":250.4489,"EPHEMERIS_TYPE":0,"CLASSIFICATION_TYPE":"U","NORAD_CAT_ID":48055,"ELEMENT_SET_NO":999,"REV_AT_EPOCH":21444,"BSTAR":7.5099893e-5,"MEAN_MOTION_DOT":4.0e-7,"MEAN_MOTION_DDOT":0},{"OBJECT_NAME":"ONEWEB-0162","OBJECT_ID":"2021-025Q","EPOCH":"2025-08-22T15:59:06.730368","MEAN_MOTION":13.13470033,"ECCENTRICITY":0.00017611,"INCLINATION":87.9003,"RA_OF_ASC_NODE":19.5128,"ARG_OF_PERICENTER":98.0492,"MEAN_ANOMALY":262.0837,"EPHEMERIS_TYPE":0,"CLASSIFICATION_TYPE":"U","NORAD_CAT_ID":48056,"ELEMENT_SET_NO":999,"REV_AT_EPOCH":21435,"BSTAR":-0.0010185384,"MEAN_MOTION_DOT":-3.59e-6,"MEAN_MOTION_DDOT":0},{"OBJECT_NAME":"ONEWEB-0155","OBJECT_ID":"2021-025R","EPOCH":"2025-08-22T16:09:03.778560","MEAN_MOTION":13.13470156,"ECCENTRICITY":0.00015794,"INCLINATION":87.8997,"RA_OF_ASC_NODE":19.519,"ARG_OF_PERICENTER":94.7198,"MEAN_ANOMALY":265.4112,"EPHEMERIS_TYPE":0,"CLASSIFICATION_TYPE":"U","NORAD_CAT_ID":48057,"ELEMENT_SET_NO":999,"REV_AT_EPOCH":21449,"BSTAR":-0.00039909808,"MEAN_MOTION_DOT":-1.33e-6,"MEAN_MOTION_DDOT":0},{"OBJECT_NAME":"ONEWEB-0149","OBJECT_ID":"2021-025S","EPOCH":"2025-08-23T07:18:20.013120","MEAN_MOTION":13.13469631,"ECCENTRICITY":0.0001926,"INCLINATION":87.9,"RA_OF_ASC_NODE":19.3882,"ARG_OF_PERICENTER":101.471,"MEAN_ANOMALY":258.6635,"EPHEMERIS_TYPE":0,"CLASSIFICATION_TYPE":"U","NORAD_CAT_ID":48058,"ELEMENT_SET_NO":999,"REV_AT_EPOCH":21438,"BSTAR":0.00078218667,"MEAN_MOTION_DOT":2.98e-6,"MEAN_MOTION_DDOT":0},{"OBJECT_NAME":"ONEWEB-0148","OBJECT_ID":"2021-025T","EPOCH":"2025-08-23T02:45:18.324288","MEAN_MOTION":13.13468643,"ECCENTRICITY":0.00020846,"INCLINATION":87.8998,"RA_OF_ASC_NODE":19.4503,"ARG_OF_PERICENTER":113.608,"MEAN_ANOMALY":246.5268,"EPHEMERIS_TYPE":0,"CLASSIFICATION_TYPE":"U","NORAD_CAT_ID":48059,"ELEMENT_SET_NO":999,"REV_AT_EPOCH":21448,"BSTAR":-0.00070701561,"MEAN_MOTION_DOT":-2.45e-6,"MEAN_MOTION_DDOT":0},{"OBJECT_NAME":"ONEWEB-0160","OBJECT_ID":"2021-025U","EPOCH":"2025-08-23T03:09:41.042592","MEAN_MOTION":13.13469082,"ECCENTRICITY":0.00023818,"INCLINATION":87.8999,"RA_OF_ASC_NODE":19.4443,"ARG_OF_PERICENTER":80.6779,"MEAN_ANOMALY":279.4619,"EPHEMERIS_TYPE":0,"CLASSIFICATION_TYPE":"U","NORAD_CAT_ID":48060,"ELEMENT_SET_NO":999,"REV_AT_EPOCH":21443,"BSTAR":-0.00076170968,"MEAN_MOTION_DOT":-2.65e-6,"MEAN_MOTION_DDOT":0},{"OBJECT_NAME":"ONEWEB-0163","OBJECT_ID":"2021-025V","EPOCH":"2025-08-23T02:47:43.983456","MEAN_MOTION":13.13470599,"ECCENTRICITY":0.00015264,"INCLINATION":87.9,"RA_OF_ASC_NODE":19.4275,"ARG_OF_PERICENTER":104.2074,"MEAN_ANOMALY":255.9225,"EPHEMERIS_TYPE":0,"CLASSIFICATION_TYPE":"U","NORAD_CAT_ID":48061,"ELEMENT_SET_NO":999,"REV_AT_EPOCH":21455,"BSTAR":-0.00082837943,"MEAN_MOTION_DOT":-2.9e-6,"MEAN_MOTION_DDOT":0},{"OBJECT_NAME":"ONEWEB-0159","OBJECT_ID":"2021-025W","EPOCH":"2025-08-23T02:35:32.501184","MEAN_MOTION":13.13467866,"ECCENTRICITY":0.00016983,"INCLINATION":87.9004,"RA_OF_ASC_NODE":19.4111,"ARG_OF_PERICENTER":103.9329,"MEAN_ANOMALY":256.1989,"EPHEMERIS_TYPE":0,"CLASSIFICATION_TYPE":"U","NORAD_CAT_ID":48062,"ELEMENT_SET_NO":999,"REV_AT_EPOCH":21447,"BSTAR":-0.00049612673,"MEAN_MOTION_DOT":-1.68e-6,"MEAN_MOTION_DDOT":0},{"OBJECT_NAME":"ONEWEB-0164","OBJECT_ID":"2021-025X","EPOCH":"2025-08-23T03:58:25.292064","MEAN_MOTION":13.13470445,"ECCENTRICITY":0.00017946,"INCLINATION":87.9001,"RA_OF_ASC_NODE":19.4092,"ARG_OF_PERICENTER":94.8819,"MEAN_ANOMALY":265.2515,"EPHEMERIS_TYPE":0,"CLASSIFICATION_TYPE":"U","NORAD_CAT_ID":48063,"ELEMENT_SET_NO":999,"REV_AT_EPOCH":21446,"BSTAR":0.00052802182,"MEAN_MOTION_DOT":2.06e-6,"MEAN_MOTION_DDOT":0},{"OBJECT_NAME":"ONEWEB-0167","OBJECT_ID":"2021-025Y","EPOCH":"2025-08-23T02:48:57.059712","MEAN_MOTION":13.13470861,"ECCENTRICITY":9.856e-5,"INCLINATION":87.901,"RA_OF_ASC_NODE":19.4527,"ARG_OF_PERICENTER":88.5389,"MEAN_ANOMALY":271.5853,"EPHEMERIS_TYPE":0,"CLASSIFICATION_TYPE":"U","NORAD_CAT_ID":48064,"ELEMENT_SET_NO":999,"REV_AT_EPOCH":21444,"BSTAR":-0.00091911411,"MEAN_MOTION_DOT":-3.23e-6,"MEAN_MOTION_DDOT":0},{"OBJECT_NAME":"ONEWEB-0166","OBJECT_ID":"2021-025Z","EPOCH":"2025-08-23T03:21:51.219360","MEAN_MOTION":13.13471435,"ECCENTRICITY":0.00018494,"INCLINATION":87.8995,"RA_OF_ASC_NODE":19.3985,"ARG_OF_PERICENTER":102.4353,"MEAN_ANOMALY":257.6983,"EPHEMERIS_TYPE":0,"CLASSIFICATION_TYPE":"U","NORAD_CAT_ID":48065,"ELEMENT_SET_NO":999,"REV_AT_EPOCH":21452,"BSTAR":-0.00028372983,"MEAN_MOTION_DOT":-9.1e-7,"MEAN_MOTION_DDOT":0},{"OBJECT_NAME":"ONEWEB-0151","OBJECT_ID":"2021-025AA","EPOCH":"2025-08-23T03:24:18.798336","MEAN_MOTION":13.13469576,"ECCENTRICITY":0.00016634,"INCLINATION":87.8998,"RA_OF_ASC_NODE":19.4224,"ARG_OF_PERICENTER":94.0203,"MEAN_ANOMALY":266.1117,"EPHEMERIS_TYPE":0,"CLASSIFICATION_TYPE":"U","NORAD_CAT_ID":48066,"ELEMENT_SET_NO":999,"REV_AT_EPOCH":21446,"BSTAR":-0.00016714726,"MEAN_MOTION_DOT":-4.8e-7,"MEAN_MOTION_DDOT":0},{"OBJECT_NAME":"ONEWEB-0170","OBJECT_ID":"2021-025AB","EPOCH":"2025-08-23T03:36:28.922400","MEAN_MOTION":13.13471466,"ECCENTRICITY":0.00017686,"INCLINATION":87.9002,"RA_OF_ASC_NODE":19.427,"ARG_OF_PERICENTER":80.7161,"MEAN_ANOMALY":279.4168,"EPHEMERIS_TYPE":0,"CLASSIFICATION_TYPE":"U","NORAD_CAT_ID":48067,"ELEMENT_SET_NO":999,"REV_AT_EPOCH":21442,"BSTAR":0.00051689906,"MEAN_MOTION_DOT":2.02e-6,"MEAN_MOTION_DDOT":0},{"OBJECT_NAME":"ONEWEB-0168","OBJECT_ID":"2021-025AC","EPOCH":"2025-08-22T19:55:45.994944","MEAN_MOTION":13.13469605,"ECCENTRICITY":0.00016604,"INCLINATION":87.9002,"RA_OF_ASC_NODE":19.472,"ARG_OF_PERICENTER":101.5115,"MEAN_ANOMALY":258.6201,"EPHEMERIS_TYPE":0,"CLASSIFICATION_TYPE":"U","NORAD_CAT_ID":48068,"ELEMENT_SET_NO":999,"REV_AT_EPOCH":21439,"BSTAR":-0.00051503754,"MEAN_MOTION_DOT":-1.75e-6,"MEAN_MOTION_DDOT":0},{"OBJECT_NAME":"ONEWEB-0173","OBJECT_ID":"2021-025AD","EPOCH":"2025-08-22T19:43:34.681152","MEAN_MOTION":13.13468884,"ECCENTRICITY":0.00013416,"INCLINATION":87.9002,"RA_OF_ASC_NODE":19.4819,"ARG_OF_PERICENTER":103.038,"MEAN_ANOMALY":257.0899,"EPHEMERIS_TYPE":0,"CLASSIFICATION_TYPE":"U","NORAD_CAT_ID":48069,"ELEMENT_SET_NO":999,"REV_AT_EPOCH":21463,"BSTAR":-0.0008379999,"MEAN_MOTION_DOT":-2.93e-6,"MEAN_MOTION_DDOT":0},{"OBJECT_NAME":"ONEWEB-0171","OBJECT_ID":"2021-025AE","EPOCH":"2025-08-22T15:08:08.359584","MEAN_MOTION":13.13470026,"ECCENTRICITY":0.00017025,"INCLINATION":87.8998,"RA_OF_ASC_NODE":19.557,"ARG_OF_PERICENTER":93.8777,"MEAN_ANOMALY":266.2547,"EPHEMERIS_TYPE":0,"CLASSIFICATION_TYPE":"U","NORAD_CAT_ID":48070,"ELEMENT_SET_NO":999,"REV_AT_EPOCH":21442,"BSTAR":0.0011470031,"MEAN_MOTION_DOT":4.32e-6,"MEAN_MOTION_DDOT":0},{"OBJECT_NAME":"ONEWEB-0172","OBJECT_ID":"2021-025AF","EPOCH":"2025-08-23T03:26:43.403424","MEAN_MOTION":13.13471573,"ECCENTRICITY":0.00015918,"INCLINATION":87.9003,"RA_OF_ASC_NODE":19.4221,"ARG_OF_PERICENTER":95.8573,"MEAN_ANOMALY":264.2737,"EPHEMERIS_TYPE":0,"CLASSIFICATION_TYPE":"U","NORAD_CAT_ID":48071,"ELEMENT_SET_NO":999,"REV_AT_EPOCH":21538,"BSTAR":7.8263293e-5,"MEAN_MOTION_DOT":4.1e-7,"MEAN_MOTION_DDOT":0}]
